[{"OBJECT_NAME":"OBJECT J","OBJECT_ID":"2023-085J","EPOCH":"2026-03-09T22:47:59.920512","MEAN_MOTION":15.31507187,"ECCENTRICITY":0.00067028,"INCLINATION":97.4828,"RA_OF_ASC_NODE":180.1819,"ARG_OF_PERICENTER":41.7877,"MEAN_ANOMALY":318.3875,"EPHEMERIS_TYPE":0,"CLASSIFICATION_TYPE":"U","NORAD_CAT_ID":57012,"ELEMENT_SET_NO":999,"REV_AT_EPOCH":15156,"BSTAR":0.00064525349,"MEAN_MOTION_DOT":0.00019595,"MEAN_MOTION_DDOT":0},{"OBJECT_NAME":"STARLINK-31138","OBJECT_ID":"2024-012V","EPOCH":"2026-03-09T07:01:41.885760","MEAN_MOTION":15.27617781,"ECCENTRICITY":4.278e-5,"INCLINATION":42.9963,"RA_OF_ASC_NODE":167.6203,"ARG_OF_PERICENTER":78.5636,"MEAN_ANOMALY":281.5264,"EPHEMERIS_TYPE":0,"CLASSIFICATION_TYPE":"U","NORAD_CAT_ID":58806,"ELEMENT_SET_NO":999,"REV_AT_EPOCH":12117,"BSTAR":-0.00027713333,"MEAN_MOTION_DOT":-7.888e-5,"MEAN_MOTION_DDOT":0}]
